APRIZESAT 2             
1 28366U 04025A   16299.55298202  .00000055  00000-0  31658-4 0  9993
2 28366  98.3363 214.8209 0108520  32.7809 328.0049 14.36573475645905
SAUDICOMSAT 1           
1 28369U 04025D   16299.13474769  .00000134  00000-0  43542-4 0  9997
2 28369  98.1611 251.2309 0034346  30.4601 329.8581 14.52307188652673
SAUDICOMSAT 2           
1 28370U 04025E   16299.50124287  .00000078  00000-0  32829-4 0  9990
2 28370  98.2707 243.3968 0058601 145.0282 215.4782 14.47258023650514
APRIZESAT 1             
1 28372U 04025G   16299.44821667  .00000079  00000-0  31768-4 0  9993
2 28372  98.2227 246.7640 0047679  89.1198 271.5459 14.49458297651561
NANOSAT-1               
1 28493U 04049B   16298.77116221  .00000179  00000-0  35852-4 0  9990
2 28493  98.2351 359.4401 0005294  44.6287 315.5345 14.73238493636266
SAUDICOMSAT 7           
1 31119U 07012C   16298.77968665  .00000157  00000-0  39975-4 0  9995
2 31119  97.9148 265.3401 0061637  83.5161 277.3053 14.61521410507579
SAUDICOMSAT 6           
1 31121U 07012E   16299.14768549  .00000122  00000-0  35021-4 0  9999
2 31121  97.9805 257.2761 0077610 140.6956 219.9913 14.58324890506548
SAUDICOMSAT 5           
1 31124U 07012H   16298.57145944  .00000188  00000-0  44681-4 0  9990
2 31124  97.8771 270.3283 0052995  55.2449 305.3727 14.63203232508091
SAUDICOMSAT 3           
1 31125U 07012J   16297.88039610  .00000191  00000-0  43812-4 0  9995
2 31125  97.8402 275.1527 0044208  29.5004 330.8681 14.64914309508554
SAUDICOMSAT 4           
1 31127U 07012L   16299.42794393  .00000174  00000-0  44333-4 0  9995
2 31127  97.9467 261.9948 0069509 108.9663 251.9088 14.60034185507152
APRIZESAT 4             
1 35684U 09041D   16298.80400093  .00000164  00000-0  29253-4 0  9996
2 35684  98.1032 232.9144 0048325 134.3922 278.7965 14.78950984390340
APRIZESAT 3             
1 35686U 09041F   16299.44989033  .00000397  00000-0  49053-4 0  9993
2 35686  98.2603 283.3540 0074531  56.9011 303.9329 14.86958397392301
AISSAT 1                
1 36797U 10035C   16299.34759663  .00000508  00000-0  65008-4 0  9997
2 36797  98.0269  45.0694 0012179  47.9957 312.2292 14.85693470340439
